CCSDS_OMM_VERS = 2.0
CREATION_DATE  = 
ORIGINATOR     = 

OBJECT_NAME    = SL-16 R/B
OBJECT_ID      = 1998-045B
CENTER_NAME    = EARTH
REF_FRAME      = TEME
TIME_SYSTEM    = UTC
MEAN_ELEMENT_THEORY = SGP/SGP4

EPOCH          = 2026-03-11T11:31:35.677056
MEAN_MOTION    = 14.16190875
ECCENTRICITY   = .0006836
INCLINATION    = 71.0119
RA_OF_ASC_NODE = 177.8085
ARG_OF_PERICENTER = 5.5275
MEAN_ANOMALY   = 354.5922

EPHEMERIS_TYPE = 0
CLASSIFICATION_TYPE = U
NORAD_CAT_ID   = 25407
ELEMENT_SET_NO = 999
REV_AT_EPOCH   = 42735
BSTAR          = .15371E-3
MEAN_MOTION_DOT = .257E-5
MEAN_MOTION_DDOT = 0

CCSDS_OMM_VERS = 2.0
CREATION_DATE  = 
ORIGINATOR     = 

OBJECT_NAME    = ISS (ZARYA)
OBJECT_ID      = 1998-067A
CENTER_NAME    = EARTH
REF_FRAME      = TEME
TIME_SYSTEM    = UTC
MEAN_ELEMENT_THEORY = SGP/SGP4

EPOCH          = 2026-03-11T10:47:00.996576
MEAN_MOTION    = 15.48580657
ECCENTRICITY   = .0007999
INCLINATION    = 51.6324
RA_OF_ASC_NODE = 63.6561
ARG_OF_PERICENTER = 180.7735
MEAN_ANOMALY   = 179.3242

EPHEMERIS_TYPE = 0
CLASSIFICATION_TYPE = U
NORAD_CAT_ID   = 25544
ELEMENT_SET_NO = 999
REV_AT_EPOCH   = 55660
BSTAR          = .17741E-3
MEAN_MOTION_DOT = .9201E-4
MEAN_MOTION_DDOT = 0

CCSDS_OMM_VERS = 2.0
CREATION_DATE  = 
ORIGINATOR     = 

OBJECT_NAME    = CZ-4B R/B
OBJECT_ID      = 1999-025C
CENTER_NAME    = EARTH
REF_FRAME      = TEME
TIME_SYSTEM    = UTC
MEAN_ELEMENT_THEORY = SGP/SGP4

EPOCH          = 2026-03-11T01:41:07.895328
MEAN_MOTION    = 14.18265542
ECCENTRICITY   = .00366752
INCLINATION    = 98.6623
RA_OF_ASC_NODE = 114.3191
ARG_OF_PERICENTER = 342.6215
MEAN_ANOMALY   = 46.9601

EPHEMERIS_TYPE = 0
CLASSIFICATION_TYPE = U
NORAD_CAT_ID   = 25732
ELEMENT_SET_NO = 999
REV_AT_EPOCH   = 38836
BSTAR          = .42571175E-4
MEAN_MOTION_DOT = .45E-6
MEAN_MOTION_DDOT = 0

CCSDS_OMM_VERS = 2.0
CREATION_DATE  = 
ORIGINATOR     = 

OBJECT_NAME    = OKEAN-O
OBJECT_ID      = 1999-039A
CENTER_NAME    = EARTH
REF_FRAME      = TEME
TIME_SYSTEM    = UTC
MEAN_ELEMENT_THEORY = SGP/SGP4

EPOCH          = 2026-03-11T09:49:32.218752
MEAN_MOTION    = 14.80338336
ECCENTRICITY   = .0001208
INCLINATION    = 97.9439
RA_OF_ASC_NODE = 130.2835
ARG_OF_PERICENTER = 70.4780
MEAN_ANOMALY   = 289.6562

EPHEMERIS_TYPE = 0
CLASSIFICATION_TYPE = U
NORAD_CAT_ID   = 25860
ELEMENT_SET_NO = 999
REV_AT_EPOCH   = 43464
BSTAR          = .11056E-3
MEAN_MOTION_DOT = .791E-5
MEAN_MOTION_DDOT = 0

CCSDS_OMM_VERS = 2.0
CREATION_DATE  = 
ORIGINATOR     = 

OBJECT_NAME    = SL-16 R/B
OBJECT_ID      = 1999-039B
CENTER_NAME    = EARTH
REF_FRAME      = TEME
TIME_SYSTEM    = UTC
MEAN_ELEMENT_THEORY = SGP/SGP4

EPOCH          = 2026-03-11T02:49:14.177280
MEAN_MOTION    = 14.81733787
ECCENTRICITY   = .00135509
INCLINATION    = 97.9964
RA_OF_ASC_NODE = 129.2122
ARG_OF_PERICENTER = 250.9100
MEAN_ANOMALY   = 109.0645

EPHEMERIS_TYPE = 0
CLASSIFICATION_TYPE = U
NORAD_CAT_ID   = 25861
ELEMENT_SET_NO = 999
REV_AT_EPOCH   = 43707
BSTAR          = .92215856E-4
MEAN_MOTION_DOT = .674E-5
MEAN_MOTION_DDOT = 0

CCSDS_OMM_VERS = 2.0
CREATION_DATE  = 
ORIGINATOR     = 

OBJECT_NAME    = DELTA 2 R/B
OBJECT_ID      = 1999-041E
CENTER_NAME    = EARTH
REF_FRAME      = TEME
TIME_SYSTEM    = UTC
MEAN_ELEMENT_THEORY = SGP/SGP4

EPOCH          = 2026-03-11T08:28:33.359232
MEAN_MOTION    = 14.11843211
ECCENTRICITY   = .0502424
INCLINATION    = 51.7629
RA_OF_ASC_NODE = 294.6363
ARG_OF_PERICENTER = 353.3361
MEAN_ANOMALY   = 6.1056

EPHEMERIS_TYPE = 0
CLASSIFICATION_TYPE = U
NORAD_CAT_ID   = 25876
ELEMENT_SET_NO = 999
REV_AT_EPOCH   = 36326
BSTAR          = .25245E-3
MEAN_MOTION_DOT = .1331E-4
MEAN_MOTION_DDOT = 0

CCSDS_OMM_VERS = 2.0
CREATION_DATE  = 
ORIGINATOR     = 

OBJECT_NAME    = HELIOS 1B
OBJECT_ID      = 1999-064A
CENTER_NAME    = EARTH
REF_FRAME      = TEME
TIME_SYSTEM    = UTC
MEAN_ELEMENT_THEORY = SGP/SGP4

EPOCH          = 2026-03-11T11:06:06.710688
MEAN_MOTION    = 14.87707136
ECCENTRICITY   = .0002466
INCLINATION    = 98.1686
RA_OF_ASC_NODE = 332.7578
ARG_OF_PERICENTER = 72.8526
MEAN_ANOMALY   = 287.2959

EPHEMERIS_TYPE = 0
CLASSIFICATION_TYPE = U
NORAD_CAT_ID   = 25977
ELEMENT_SET_NO = 999
REV_AT_EPOCH   = 68552
BSTAR          = .25546E-3
MEAN_MOTION_DOT = .2269E-4
MEAN_MOTION_DDOT = 0

CCSDS_OMM_VERS = 2.0
CREATION_DATE  = 
ORIGINATOR     = 

OBJECT_NAME    = TERRA
OBJECT_ID      = 1999-068A
CENTER_NAME    = EARTH
REF_FRAME      = TEME
TIME_SYSTEM    = UTC
MEAN_ELEMENT_THEORY = SGP/SGP4

EPOCH          = 2026-03-11T12:06:41.753952
MEAN_MOTION    = 14.61016922
ECCENTRICITY   = .0002808
INCLINATION    = 97.9591
RA_OF_ASC_NODE = 123.8700
ARG_OF_PERICENTER = 147.1657
MEAN_ANOMALY   = 320.0163

EPHEMERIS_TYPE = 0
CLASSIFICATION_TYPE = U
NORAD_CAT_ID   = 25994
ELEMENT_SET_NO = 999
REV_AT_EPOCH   = 39534
BSTAR          = .11703E-3
MEAN_MOTION_DOT = .53E-5
MEAN_MOTION_DDOT = 0

CCSDS_OMM_VERS = 2.0
CREATION_DATE  = 
ORIGINATOR     = 

OBJECT_NAME    = SL-16 R/B
OBJECT_ID      = 2000-006B
CENTER_NAME    = EARTH
REF_FRAME      = TEME
TIME_SYSTEM    = UTC
MEAN_ELEMENT_THEORY = SGP/SGP4

EPOCH          = 2026-03-11T11:54:27.233856
MEAN_MOTION    = 14.15825550
ECCENTRICITY   = .001667
INCLINATION    = 71.0007
RA_OF_ASC_NODE = 94.0389
ARG_OF_PERICENTER = 187.5909
MEAN_ANOMALY   = 172.4964

EPHEMERIS_TYPE = 0
CLASSIFICATION_TYPE = U
NORAD_CAT_ID   = 26070
ELEMENT_SET_NO = 999
REV_AT_EPOCH   = 34881
BSTAR          = -.52847E-4
MEAN_MOTION_DOT = -.152E-5
MEAN_MOTION_DDOT = 0

CCSDS_OMM_VERS = 2.0
CREATION_DATE  = 
ORIGINATOR     = 

OBJECT_NAME    = TITAN 4B R/B
OBJECT_ID      = 2000-047B
CENTER_NAME    = EARTH
REF_FRAME      = TEME
TIME_SYSTEM    = UTC
MEAN_ELEMENT_THEORY = SGP/SGP4

EPOCH          = 2026-03-11T11:39:07.619904
MEAN_MOTION    = 15.09583869
ECCENTRICITY   = .0038659
INCLINATION    = 67.9902
RA_OF_ASC_NODE = 35.4603
ARG_OF_PERICENTER = 33.2943
MEAN_ANOMALY   = 327.0626

EPHEMERIS_TYPE = 0
CLASSIFICATION_TYPE = U
NORAD_CAT_ID   = 26474
ELEMENT_SET_NO = 999
REV_AT_EPOCH   = 39318
BSTAR          = .33613E-3
MEAN_MOTION_DOT = .5375E-4
MEAN_MOTION_DDOT = 0

CCSDS_OMM_VERS = 2.0
CREATION_DATE  = 
ORIGINATOR     = 

OBJECT_NAME    = ENVISAT
OBJECT_ID      = 2002-009A
CENTER_NAME    = EARTH
REF_FRAME      = TEME
TIME_SYSTEM    = UTC
MEAN_ELEMENT_THEORY = SGP/SGP4

EPOCH          = 2026-03-11T12:00:52.579584
MEAN_MOTION    = 14.39037725
ECCENTRICITY   = .0001315
INCLINATION    = 98.3730
RA_OF_ASC_NODE = 24.0548
ARG_OF_PERICENTER = 82.6233
MEAN_ANOMALY   = 36.7556

EPHEMERIS_TYPE = 0
CLASSIFICATION_TYPE = U
NORAD_CAT_ID   = 27386
ELEMENT_SET_NO = 999
REV_AT_EPOCH   = 25943
BSTAR          = .67102E-4
MEAN_MOTION_DOT = .164E-5
MEAN_MOTION_DDOT = 0

CCSDS_OMM_VERS = 2.0
CREATION_DATE  = 
ORIGINATOR     = 

OBJECT_NAME    = IDEFIX & ARIANE 42P R/B
OBJECT_ID      = 2002-021B
CENTER_NAME    = EARTH
REF_FRAME      = TEME
TIME_SYSTEM    = UTC
MEAN_ELEMENT_THEORY = SGP/SGP4

EPOCH          = 2026-03-11T10:53:12.922656
MEAN_MOTION    = 14.31027545
ECCENTRICITY   = .0011676
INCLINATION    = 98.5869
RA_OF_ASC_NODE = 9.0388
ARG_OF_PERICENTER = 176.9746
MEAN_ANOMALY   = 183.1510

EPHEMERIS_TYPE = 0
CLASSIFICATION_TYPE = U
NORAD_CAT_ID   = 27422
ELEMENT_SET_NO = 999
REV_AT_EPOCH   = 24427
BSTAR          = .14303E-3
MEAN_MOTION_DOT = .333E-5
MEAN_MOTION_DDOT = 0

