SL-16 R/B               
1 25407U 98045B   26070.48027404  .00000257  00000+0  15371-3 0  9991
2 25407  71.0119 177.8085 0006836   5.5275 354.5922 14.16190875427355
ISS (ZARYA)             
1 25544U 98067A   26070.44931709  .00009201  00000+0  17741-3 0  9996
2 25544  51.6324  63.6561 0007999 180.7735 179.3242 15.48580657556604
CZ-4B R/B               
1 25732U 99025C   26070.07023027  .00000045  00000+0  42571-4 0  9991
2 25732  98.6623 114.3191 0036675 342.6215  46.9601 14.18265542388367
OKEAN-O                 
1 25860U 99039A   26070.40940068  .00000791  00000+0  11056-3 0  9999
2 25860  97.9439 130.2835 0001208  70.4780 289.6562 14.80338336434641
SL-16 R/B               
1 25861U 99039B   26070.11752520  .00000674  00000+0  92216-4 0  9990
2 25861  97.9964 129.2122 0013550 250.9100 109.0645 14.81733787437073
DELTA 2 R/B             
1 25876U 99041E   26070.35316388  .00001331  00000+0  25245-3 0  9991
2 25876  51.7629 294.6363 0502424 353.3361   6.1056 14.11843211363268
HELIOS 1B               
1 25977U 99064A   26070.46257767  .00002269  00000+0  25546-3 0  9990
2 25977  98.1686 332.7578 0002466  72.8526 287.2959 14.87707136685525
TERRA                   
1 25994U 99068A   26070.50464993  .00000530  00000+0  11703-3 0  9998
2 25994  97.9591 123.8700 0002808 147.1657 320.0163 14.61016922395342
SL-16 R/B               
1 26070U 00006B   26070.49614854 -.00000152  00000+0 -52847-4 0  9996
2 26070  71.0007  94.0389 0016670 187.5909 172.4964 14.15825550348817
TITAN 4B R/B            
1 26474U 00047B   26070.48550486  .00005375  00000+0  33613-3 0  9997
2 26474  67.9902  35.4603 0038659  33.2943 327.0626 15.09583869393188
ENVISAT                 
1 27386U 02009A   26070.50060856  .00000164  00000+0  67102-4 0  9992
2 27386  98.3730  24.0548 0001315  82.6233  36.7556 14.39037725259431
IDEFIX & ARIANE 42P R/B 
1 27422U 02021B   26070.45362179  .00000333  00000+0  14303-3 0  9996
2 27422  98.5869   9.0388 0011676 176.9746 183.1510 14.31027545244273
